NORAD_CAT_ID,OBJECT_NAME,OBJECT_TYPE,EPOCH,MEAN_MOTION,ECCENTRICITY,INCLINATION,RA_OF_ASC_NODE,ARG_OF_PERICENTER,MEAN_ANOMALY,BSTAR,MEAN_MOTION_DOT,MEAN_MOTION_DDOT,TLE_LINE0,TLE_LINE1,TLE_LINE2,SEMIMAJOR_AXIS,PERIOD,APOGEE,PERIGEE,DECAYED
52375.0,STARLINK-3785,PAYLOAD,2023-03-26 02:37:11,15.08814889,0.0001024,53.2171,355.5449,76.491,283.6196,-0.00015751,-2.792e-05,0.0,0 STARLINK-3785,1 52375U 22045AW  23085.10915711 -.00002792  00000-0 -15751-3 0  9992,2 52375  53.2171 355.5449 0001024  76.4910 283.6196 15.08814889 52949,6917.957,95.439,540.531,539.114,0.0
52375.0,STARLINK-3785,PAYLOAD,2023-03-26 21:41:49,15.08827377,9.62e-05,53.217,351.9758,72.5074,287.6023,0.00067647,0.00010491,0.0,0 STARLINK-3785,1 52375U 22045AW  23085.90404941  .00010491  00000-0  67647-3 0  9992,2 52375  53.2170 351.9758 0000962  72.5074 287.6023 15.08827377 53062,6917.919,95.438,540.449,539.118,0.0
52375.0,STARLINK-3785,PAYLOAD,2023-03-27 04:03:22,15.08850167,8.95e-05,53.2172,350.7874,80.3649,279.7444,0.0012441,0.00019573,0.0,0 STARLINK-3785,1 52375U 22045AW  23086.16900655  .00019573  00000-0  12441-2 0  9995,2 52375  53.2172 350.7874 0000895  80.3649 279.7444 15.08850167 53107,6917.849,95.437,540.333,539.095,0.0
52375.0,STARLINK-3785,PAYLOAD,2023-03-27 21:32:36,15.08859226,0.0001127,53.2171,347.5164,76.2961,283.8156,0.00084607,0.0001321,0.0,0 STARLINK-3785,1 52375U 22045AW  23086.89764364  .00013210  00000-0  84607-3 0  9996,2 52375  53.2171 347.5164 0001127  76.2961 283.8156 15.08859226 53215,6917.822,95.436,540.466,538.907,0.0
52375.0,STARLINK-3785,PAYLOAD,2023-03-28 02:18:45,15.0886922,0.0001241,53.2172,346.6241,75.3334,284.7795,0.0010122,0.00015871,0.0,0 STARLINK-3785,1 52375U 22045AW  23087.09635974  .00015871  00000-0  10122-2 0  9998,2 52375  53.2172 346.6241 0001241  75.3334 284.7795 15.08869220 53240,6917.791,95.436,540.515,538.798,0.0
52375.0,STARLINK-3785,PAYLOAD,2023-03-28 21:23:22,15.08851576,7.68e-05,53.2168,343.0561,65.5838,294.5234,0.0006051,9.358e-05,0.0,0 STARLINK-3785,1 52375U 22045AW  23087.89123658  .00009358  00000-0  60510-3 0  9997,2 52375  53.2168 343.0561 0000768  65.5838 294.5234 15.08851576 53369,6917.845,95.437,540.241,539.179,0.0
52375.0,STARLINK-3785,PAYLOAD,2023-03-28 22:58:45,15.08852581,0.0001027,53.2163,342.759,90.8639,269.2471,0.00026008,3.855e-05,0.0,0 STARLINK-3785,1 52375U 22045AW  23087.95747569  .00003855  00000-0  26008-3 0  9997,2 52375  53.2163 342.7590 0001027  90.8639 269.2471 15.08852581 53371,6917.842,95.437,540.417,538.996,0.0
52375.0,STARLINK-3785,PAYLOAD,2023-03-29 03:44:55,15.08858449,0.0001296,53.2169,341.8665,62.3432,297.7692,0.00053839,8.295e-05,0.0,0 STARLINK-3785,1 52375U 22045AW  23088.15619488  .00008295  00000-0  53839-3 0  9993,2 52375  53.2169 341.8665 0001296  62.3432 297.7692 15.08858449 53407,6917.824,95.436,540.586,538.792,0.0
52375.0,STARLINK-3785,PAYLOAD,2023-03-29 22:49:33,15.0884351,0.0001039,53.2163,338.2963,86.1425,273.9686,0.00050315,7.73e-05,0.0,0 STARLINK-3785,1 52375U 22045AW  23088.95107933  .00007730  00000-0  50315-3 0  9997,2 52375  53.2163 338.2963 0001039  86.1425 273.9686 15.08843510 53528,6917.87,95.437,540.453,539.016,0.0
52375.0,STARLINK-3785,PAYLOAD,2023-03-30 09:57:15,15.08827458,9.99e-05,53.2167,336.2173,73.8017,286.3085,-0.00021984,-3.784e-05,0.0,0 STARLINK-3785,1 52375U 22045AW  23089.41476301 -.00003784  00000-0 -21984-3 0  9994,2 52375  53.2167 336.2173 0000999  73.8017 286.3085 15.08827458 53598,6917.919,95.438,540.475,539.093,0.0
52375.0,STARLINK-3785,PAYLOAD,2023-03-31 01:51:07,15.08846235,0.0001561,53.2152,333.2461,61.0827,299.0322,0.00052967,8.153e-05,0.0,0 STARLINK-3785,1 52375U 22045AW  23090.07716566  .00008153  00000-0  52967-3 0  9996,2 52375  53.2152 333.2461 0001561  61.0827 299.0322 15.08846235 53693,6917.861,95.437,540.806,538.646,0.0
52375.0,STARLINK-3785,PAYLOAD,2023-03-31 20:55:45,15.08843758,0.0001184,53.2165,329.6761,80.8476,279.265,0.0009761,0.00015282,0.0,0 STARLINK-3785,1 52375U 22045AW  23090.87204953  .00015282  00000-0  97610-3 0  9991,2 52375  53.2165 329.6761 0001184  80.8476 279.2650 15.08843758 53814,6917.869,95.437,540.553,538.915,0.0
52375.0,STARLINK-3785,PAYLOAD,2023-04-01 01:41:54,15.08857875,0.0001325,53.2166,328.7836,70.994,289.1196,0.0014002,0.00022077,0.0,0 STARLINK-3785,1 52375U 22045AW  23091.07076849  .00022077  00000-0  14002-2 0  9998,2 52375  53.2166 328.7836 0001325  70.9940 289.1196 15.08857875 53844,6917.826,95.436,540.607,538.774,0.0
52375.0,STARLINK-3785,PAYLOAD,2023-04-01 16:00:23,15.08836809,0.0001686,53.2162,326.1073,71.3855,288.732,0.0016578,0.00026192,0.0,0 STARLINK-3785,1 52375U 22045AW  23091.66693611  .00026192  00000-0  16578-2 0  9997,2 52375  53.2162 326.1073 0001686  71.3855 288.7320 15.08836809 53933,6917.89,95.438,540.921,538.589,0.0
52375.0,STARLINK-3785,PAYLOAD,2023-04-01 22:21:55,15.088418,0.0001099,53.2174,324.9177,75.8082,284.3033,0.0013946,0.00021978,0.0,0 STARLINK-3785,1 52375U 22045AW  23091.93189579  .00021978  00000-0  13946-2 0  9993,2 52375  53.2174 324.9177 0001099  75.8082 284.3033 15.08841800 53970,6917.875,95.437,540.5,538.98,0.0
52375.0,STARLINK-3785,PAYLOAD,2023-04-02 14:15:46,15.08856124,0.0001201,53.2171,321.9454,84.1123,276.0006,0.0010153,0.00015915,0.0,0 STARLINK-3785,1 52375U 22045AW  23092.59429304  .00015915  00000-0  10153-2 0  9990,2 52375  53.2171 321.9454 0001201  84.1123 276.0006 15.08856124 54071,6917.831,95.437,540.527,538.865,0.0
52375.0,STARLINK-3785,PAYLOAD,2023-04-02 20:37:19,15.08859161,0.000123,53.2164,320.7548,81.9589,278.1543,0.00078286,0.000122,0.0,0 STARLINK-3785,1 52375U 22045AW  23092.85925016  .00012200  00000-0  78286-3 0  9996,2 52375  53.2164 320.7548 0001230  81.9589 278.1543 15.08859161 54115,6917.822,95.436,540.538,538.836,0.0
52375.0,STARLINK-3785,PAYLOAD,2023-04-03 14:06:33,15.08843055,0.0001578,53.2163,317.4841,78.4246,281.6923,7.4177e-05,8.93e-06,0.0,0 STARLINK-3785,1 52375U 22045AW  23093.58789165  .00000893  00000-0  74177-4 0  9991,2 52375  53.2163 317.4841 0001578  78.4246 281.6923 15.08843055 54227,6917.871,95.437,540.828,538.644,0.0
52375.0,STARLINK-3785,PAYLOAD,2023-04-03 22:03:29,15.08840246,9.68e-05,53.216,315.997,97.4622,262.648,0.0002079,3.023e-05,0.0,0 STARLINK-3785,1 52375U 22045AW  23093.91909152  .00003023  00000-0  20790-3 0  9997,2 52375  53.2160 315.9970 0000968  97.4622 262.6480 15.08840246 54272,6917.88,95.438,540.414,539.075,0.0
52375.0,STARLINK-3785,PAYLOAD,2023-04-04 01:14:15,15.08842844,0.0001205,53.2153,315.4015,96.8113,263.3016,0.00043683,6.672e-05,0.0,0 STARLINK-3785,1 52375U 22045AW  23094.05157175  .00006672  00000-0  43683-3 0  9992,2 52375  53.2153 315.4015 0001205  96.8113 263.3016 15.08842844 54293,6917.872,95.437,540.57,538.903,0.0
52375.0,STARLINK-3785,PAYLOAD,2023-04-04 21:54:16,15.08843271,0.000124,53.2146,311.5354,93.1015,267.0119,0.00035357,5.344e-05,0.0,0 STARLINK-3785,1 52375U 22045AW  23094.91269326  .00005344  00000-0  35357-3 0  9993,2 52375  53.2146 311.5354 0001240  93.1015 267.0119 15.08843271 54423,6917.87,95.437,540.593,538.878,0.0
52375.0,STARLINK-3785,PAYLOAD,2023-04-04 23:29:39,15.08844286,0.0001223,53.2145,311.2378,91.4156,268.6976,0.00036974,5.602e-05,0.0,0 STARLINK-3785,1 52375U 22045AW  23094.97893311  .00005602  00000-0  36974-3 0  9999,2 52375  53.2145 311.2378 0001223  91.4156 268.6976 15.08844286 54439,6917.867,95.437,540.578,538.886,0.0
52375.0,STARLINK-3785,PAYLOAD,2023-04-05 20:09:40,15.08837854,0.000122,53.2151,307.3709,93.4836,266.6296,0.00024016,3.536e-05,0.0,0 STARLINK-3785,1 52375U 22045AW  23095.84005693  .00003536  00000-0  24016-3 0  9992,2 52375  53.2151 307.3709 0001220  93.4836 266.6296 15.08837854 54564,6917.887,95.438,540.596,538.908,0.0
52375.0,STARLINK-3785,PAYLOAD,2023-04-05 21:45:03,15.08841434,0.0001263,53.2153,307.0757,83.7661,276.3475,0.00017854,2.555e-05,0.0,0 STARLINK-3785,1 52375U 22045AW  23095.90629547  .00002555  00000-0  17854-3 0  9991,2 52375  53.2153 307.0757 0001263  83.7661 276.3475 15.08841434 54578,6917.876,95.437,540.615,538.867,0.0
52375.0,STARLINK-3785,PAYLOAD,2023-04-06 13:38:55,15.08841766,0.000125,53.2156,304.1019,82.8828,277.2306,0.00015186,2.13e-05,0.0,0 STARLINK-3785,1 52375U 22045AW  23096.56869579  .00002130  00000-0  15186-3 0  9990,2 52375  53.2156 304.1019 0001250  82.8828 277.2306 15.08841766 54673,6917.875,95.437,540.605,538.875,0.0
52375.0,STARLINK-3785,PAYLOAD,2023-04-06 23:11:13,15.08847973,0.000132,53.2152,302.3186,78.8232,281.2909,0.00023348,3.431e-05,0.0,0 STARLINK-3785,1 52375U 22045AW  23096.96613302  .00003431  00000-0  23348-3 0  9999,2 52375  53.2152 302.3186 0001320  78.8232 281.2909 15.08847973 54733,6917.856,95.437,540.634,538.808,0.0
52375.0,STARLINK-3785,PAYLOAD,2023-04-07 13:29:42,15.08845999,0.0001635,53.2142,299.6434,64.265,295.8511,0.00010478,1.38e-05,0.0,0 STARLINK-3785,1 52375U 22045AW  23097.56229418  .00001380  00000-0  10478-3 0  9998,2 52375  53.2142 299.6434 0001635  64.2650 295.8511 15.08845999 54824,6917.862,95.437,540.858,538.596,0.0
52375.0,STARLINK-3785,PAYLOAD,2023-04-07 21:26:37,15.0885075,0.0001123,53.2142,298.156,73.1771,286.9344,2.7407e-05,1.48e-06,0.0,0 STARLINK-3785,1 52375U 22045AW  23097.89348899  .00000148  00000-0  27407-4 0  9991,2 52375  53.2142 298.1560 0001123  73.1771 286.9344 15.08850750 54874,6917.848,95.437,540.489,538.936,0.0
52375.0,STARLINK-3785,PAYLOAD,2023-04-08 13:20:29,15.08838678,0.0001666,53.2139,295.1809,90.3094,269.8089,5.8953e-05,6.5e-06,0.0,0 STARLINK-3785,1 52375U 22045AW  23098.55589664  .00000650  00000-0  58953-4 0  9990,2 52375  53.2139 295.1809 0001666  90.3094 269.8089 15.08838678 54976,6917.884,95.438,540.902,538.597,0.0
52375.0,STARLINK-3785,PAYLOAD,2023-04-09 13:11:16,15.08839334,9.98e-05,53.2163,290.7207,89.0722,271.0384,6.0527e-05,6.76e-06,0.0,0 STARLINK-3785,1 52375U 22045AW  23099.54949713  .00000676  00000-0  60527-4 0  9993,2 52375  53.2163 290.7207 0000998  89.0722 271.0384 15.08839334 55127,6917.882,95.438,540.438,539.057,0.0
